GALAXY 25 (G-25)        
1 24812U 97026A   22218.19285439 -.00000002  00000+0  00000+0 0  9998
2 24812   3.8112  83.1815 0004515  22.3469 344.7024  1.00271528 92226
INTELSAT 5 (IS-5)       
1 24916U 97046A   22217.83104244 -.00000061  00000+0  00000+0 0  9994
2 24916   7.3301  60.7224 0003428 103.9674 254.9742  1.00272022 91465
GALAXY 11 (G-11)        
1 26038U 99071A   22217.85109853 -.00000159  00000+0  00000+0 0  9992
2 26038   3.1224  87.1208 0000161 216.8051 223.7384  1.00271411 82938
INTELSAT 9 (IS-9)       
1 26451U 00043A   22218.06002358 -.00000287  00000+0  00000+0 0  9990
2 26451   7.3148  60.8915 0002469  72.0882 153.2212  1.00271961 80696
INTELSAT 1R (IS-1R)     
1 26608U 00072A   22218.51116351 -.00000138  00000+0  00000+0 0  9990
2 26608   4.5920  80.1558 0000515 312.7942 263.1778  1.00271511 79503
INTELSAT 10 (IS-10)     
1 26766U 01019A   22217.84424299  .00000036  00000+0  00000+0 0  9991
2 26766   5.6904  72.9548 0003031  35.7414 327.4031  1.00271966 31476
INTELSAT 901 (IS-901)   
1 26824U 01024A   22217.37619068 -.00000195  00000+0  00000+0 0  9997
2 26824   0.0553 263.6508 0001925 255.9001 262.2758  1.00271433  8816
INTELSAT 902 (IS-902)   
1 26900U 01039A   22217.71615743 -.00000278  00000+0  00000+0 0  9994
2 26900   2.5261  88.5022 0002606  52.8656  20.5897  1.00271506 76541
INTELSAT 904 (IS-904)   
1 27380U 02007A   22218.07896831 -.00000211  00000+0  00000+0 0  9999
2 27380   3.3569  85.4349 0003127  56.1995 171.8800  1.00270944 74934
DIRECTV 5 (TEMPO 1)     
1 27426U 02023A   22217.63242451 -.00000050  00000+0  00000+0 0  9993
2 27426   1.2483  92.6777 0003365  37.9672 301.0581  1.00271033 73960
INTELSAT 905 (IS-905)   
1 27438U 02027A   22218.22354097 -.00000182  00000+0  00000+0 0  9992
2 27438   3.1791  86.1730 0002754  48.2765 236.2776  1.00271308 73827
GALAXY 3C (G-3C)        
1 27445U 02030A   22218.11657802 -.00000147  00000+0  00000+0 0  9993
2 27445   0.0957  77.4758 0000691 316.9933 227.2964  1.00270316 73803
INTELSAT 906 (IS-906)   
1 27513U 02041A   22218.19285439  .00000018  00000+0  00000+0 0  9998
2 27513   2.1959  89.9715 0003121  46.0642 312.2220  1.00271588 72827
GALAXY 12 (G-12)        
1 27715U 03013B   22218.45470779  .00000059  00000+0  00000+0 0  9999
2 27715   3.3908  85.0638 0001968  49.9575 214.6335  1.00271438 70861
GALAXY 23 (G-23)        
1 27854U 03034A   22217.63358736  .00000020  00000+0  00000+0 0  9991
2 27854   0.0661 267.0021 0002892 230.3938 283.8555  1.00272713 69585
GALAXY 13 (HORIZONS-1)  
1 27954U 03044A   22218.45261703  .00000052  00000+0  00000+0 0  9996
2 27954   0.0151  77.6318 0000788 284.9163 348.3279  1.00272388 69017
INTELSAT 10-02          
1 28358U 04022A   22218.38868757 -.00000006  00000+0  00000+0 0  9996
2 28358   0.0550 263.0207 0000920 234.1987 316.6286  1.00271510 66486
XM-3 (RHYTHM)           
1 28626U 05008A   22218.39424437 -.00000201  00000+0  00000+0 0  9990
2 28626   0.0354 235.4795 0001876 302.6701 193.5855  1.00272756 63920
DIRECTV 8               
1 28659U 05019A   22217.63692793  .00000008  00000+0  00000+0 0  9990
2 28659   0.0135  95.8850 0003007  41.2925 287.2288  1.00270942 62919
GALAXY 28 (G-28)        
1 28702U 05022A   22218.39424437 -.00000181  00000+0  00000+0 0  9998
2 28702   0.0128  63.8565 0002094  75.2669 228.7041  1.00271017 62680
GALAXY 14 (G-14)        
1 28790U 05030A   22218.23496421  .00000159  00000+0  00000+0 0  9993
2 28790   1.3834  91.7548 0002222  35.1996 305.2571  1.00271607 62153
GALAXY 15 (G-15)        
1 28884U 05041A   22218.44595053  .00000083  00000+0  00000+0 0  9999
2 28884   0.0302 283.4299 0001706 218.7929 200.2697  1.00273404 61460
SPACEWAY 2              
1 28903U 05046B   22218.43771962  .00000106  00000+0  00000+0 0  9996
2 28903   2.0164  87.3988 0000191 244.5478   1.6598  1.00272014 61345
GALAXY 16 (G-16)        
1 29236U 06023A   22217.84996493 -.00000121  00000+0  00000+0 0  9992
2 29236   0.0578 264.6254 0002855 230.2456  26.4695  1.00272138 58824
DIRECTV 9S              
1 29494U 06043A   22218.07410586 -.00000108  00000+0  00000+0 0  9995
2 29494   0.0058 258.2845 0003389 243.9360  97.8390  1.00271520 57957
XM-4 (BLUES)            
1 29520U 06049A   22218.39424437 -.00000201  00000+0  00000+0 0  9990
2 29520   0.0654 281.9633 0001313  41.4248  48.3358  1.00270492 57859
GALAXY 17 (G-17)        
1 31307U 07016B   22218.06855137 -.00000169  00000+0  00000+0 0  9993
2 31307   0.0160  20.9712 0002617 113.2141 114.0657  1.00270493 55924
DIRECTV 10              
1 31862U 07032A   22217.84918013 -.00000097  00000+0  00000+0 0  9995
2 31862   0.0064 328.7776 0000324 237.8267 310.6647  1.00270743 55254
SPACEWAY 3              
1 32018U 07036A   22217.63547654 -.00000145  00000+0  00000+0 0  9993
2 32018   0.3447  89.7498 0000291  34.2400 323.9850  1.00271123 32398
INTELSAT 11 (IS-11)     
1 32253U 07044B   22217.71755264 -.00000262  00000+0  00000+0 0  9990
2 32253   0.0140  89.4121 0001913  59.6875  20.4659  1.00271658 54343
HORIZONS-2              
1 32388U 07063B   22217.85813115  .00000067  00000+0  00000+0 0  9997
2 32388   0.0116  19.9341 0004801  73.6160 193.2368  0.99708593 53669
DIRECTV 11              
1 32729U 08013A   22217.63460453 -.00000119  00000+0  00000+0 0  9990
2 32729   0.0080 326.3874 0000175 182.8602 294.1756  1.00271499 31434
GALAXY 18 (G-18)        
1 32951U 08024A   22217.70168216  .00000031  00000+0  00000+0 0  9991
2 32951   0.0142  89.6244 0003580  53.5613 300.6365  1.00272402 51930
INTELSAT 25 (IS-25)     
1 33153U 08034A   22218.38799461 -.00000219  00000+0  00000+0 0  9993
2 33153   0.0117 130.1892 0003303  18.9595 273.9228  1.00271678 51490
GALAXY 19 (G-19)        
1 33376U 08045A   22217.56588505 -.00000132  00000+0  00000+0 0  9990
2 33376   0.0576 268.6947 0003134 231.7221 280.3828  1.00271077 50745
FM-5                    
1 35493U 09034A   22217.85249374 -.00000194  00000+0  00000+0 0  9999
2 35493   0.0174  65.6801 0000831 336.2439 133.1921  1.00272246 32498
INTELSAT 14 (IS-14)     
1 36097U 09064A   22218.15535549 -.00000268  00000+0  00000+0 0  9991
2 36097   0.0179  78.4152 0002794  54.3100 192.8711  1.00270983 46544
INTELSAT 15 (IS-15)     
1 36106U 09067A   22217.88909133 -.00000180  00000+0  00000+0 0  9991
2 36106   0.0117  64.2063 0002517  77.1736 218.2520  1.00272215 27070
DIRECTV 12              
1 36131U 09075A   22217.99271198 -.00000098  00000+0  00000+0 0  9991
2 36131   0.0417 251.4794 0000055 290.6873  27.0024  1.00271461 46237
INTELSAT 16 (IS-16)     
1 36397U 10006A   22218.43938222 -.00000240  00000+0  00000+0 0  9998
2 36397   0.0114  73.4120 0002179  60.6725 262.8458  1.00272481 45579
XM-5                    
1 37185U 10053A   22218.38633951 -.00000018  00000+0  00000+0 0  9994
2 37185   0.0156  83.1127 0000857 290.7223 324.9456  1.00268220 43297
INTELSAT 17 (IS-17)     
1 37238U 10065B   22217.87993993  .00000004  00000+0  00000+0 0  9998
2 37238   0.0353 221.3922 0002627 282.5074 193.2509  1.00271475 39088
INTELSAT NEW DAWN       
1 37392U 11016A   22217.76716223  .00000162  00000+0  00000+0 0  9998
2 37392   0.0338 240.6460 0001062 224.6116 158.0061  1.00273811 39133
INTELSAT 18 (IS-18)     
1 37834U 11056A   22218.12073730  .00000058  00000+0  00000+0 0  9997
2 37834   0.0206  27.9852 0002186 109.2781  40.8301  1.00272001 39699
INTELSAT 22 (IS-22)     
1 38098U 12011A   22217.74048633 -.00000053  00000+0  00000+0 0  9999
2 38098   0.0202  84.6565 0002725  61.4407 146.8190  1.00273049 37663
INTELSAT 19 (IS-19)     
1 38356U 12030A   22218.52084456 -.00000052  00000+0  00000+0 0  9996
2 38356   0.0150  86.3607 0003156  45.2573 176.9144  1.00270965 37365
INTELSAT 20 (IS-20)     
1 38740U 12043A   22218.19285439 -.00000019  00000+0  00000+0 0  9997
2 38740   0.0175 105.4474 0001272  86.2592 260.9074  1.00270058 36680
INTELSAT 21 (IS-21)     
1 38749U 12045A   22218.42827323 -.00000280  00000+0  00000+0 0  9998
2 38749   0.0127  69.8713 0002329  65.5708 275.6745  1.00271772 36499
INTELSAT 23 (IS-23)     
1 38867U 12057A   22218.42132830 -.00000280  00000+0  00000+0 0  9994
2 38867   0.0161 113.5373 0000885 274.9173  25.1735  1.00271721 35966
FM-6                    
1 39360U 13058A   22218.46594928 -.00000012  00000+0  00000+0 0  9992
2 39360   0.0498 265.0273 0000652 105.9345 355.5898  1.00270579 32200
INTELSAT 30 (IS-30)     
1 40271U 14062A   22218.25228948 -.00000146  00000+0  00000+0 0  9992
2 40271   0.0074  74.9222 0002161   2.2523 233.3567  1.00271427 28617
DIRECTV 14              
1 40333U 14078B   22218.48598573 -.00000121  00000+0  00000+0 0  9990
2 40333   0.0145  88.4191 0000648  95.1167 207.1953  1.00273404 28102
DIRECTV 15              
1 40663U 15026A   22218.48260120 -.00000098  00000+0  00000+0 0  9997
2 40663   0.0134  96.3597 0000915 313.1898 336.3146  1.00272210 26397
SKY MEXICO-1            
1 40664U 15026B   22218.20465921 -.00000229  00000+0  00000+0 0  9990
2 40664   0.0170  30.7420 0002244 101.7856 177.0982  1.00271771 26385
INTELSAT 34 (IS-34)     
1 40874U 15039A   22218.27453971 -.00000281  00000+0  00000+0 0  9994
2 40874   0.0311 297.0339 0001002 119.6530 301.4489  1.00276135 25473
INTELSAT 31 (IS-31)     
1 41581U 16035A   22218.25228891 -.00000146  00000+0  00000+0 0  9996
2 41581   0.0289 223.6624 0000822   4.2326  82.6307  1.00273405 22545
INTELSAT 36 (IS-36)     
1 41747U 16053A   22217.66800227 -.00000019  00000+0  00000+0 0  9992
2 41747   0.0090  32.3209 0003157 334.0073 256.8302  1.00272166 21799
INTELSAT 33E (IS-33E)   
1 41748U 16053B   22218.19285439  .00000054  00000+0  00000+0 0  9992
2 41748   0.0270 310.4139 0002130 193.6651 300.0360  1.00272477 22076
INTELSAT 32E (IS-32E)   
1 41945U 17007B   22218.15535549 -.00000264  00000+0  00000+0 0  9991
2 41945   0.0191  89.3426 0000587 322.7227 275.3496  1.00271465 20096
INTELSAT 35E (IS-35E)   
1 42818U 17041A   22218.11976453 -.00000233  00000+0  00000+0 0  9994
2 42818   0.0014  99.9077 0001788  27.3409 196.0081  1.00270116 18653
INTELSAT 37E (IS-37E)   
1 42950U 17059A   22217.72261025 -.00000135  00000+0  00000+0 0  9999
2 42950   0.0120  87.5831 0003027  60.6536  48.1482  1.00271185 17892
AZERSPACE 2 (IS-38)     
1 43632U 18074A   22216.87417627  .00000143  00000+0  00000+0 0  9999
2 43632   0.0159  92.6784 0001543  44.8361 175.6899  1.00271648 14290
HORIZONS-3E             
1 43633U 18074B   22217.11411424 -.00000024  00000+0  00000+0 0  9996
2 43633   0.0162 220.0217 0001689  91.2153 212.4763  1.00269999 14183
AT&T T-16               
1 44333U 19034A   22217.31308812 -.00000109  00000+0  00000+0 0  9993
2 44333   0.0236 300.8416 0001047 109.2724 275.5812  1.00277488 11479
INTELSAT 39 (IS-39)     
1 44476U 19049B   22218.02480044  .00000039  00000+0  00000+0 0  9995
2 44476   0.0091  74.5461 0000923 289.4274  21.4214  1.00270675 10995
GALAXY 30 (G-30)        
1 46114U 20056C   22218.45594844  .00000041  00000+0  00000+0 0  9990
2 46114   0.0135  87.8692 0002411  49.7766 216.4491  1.00271047  7257
